IRIDIUM 112             
1 41925U 17003J   25071.82410055  .00000161  00000+0  50252-4 0  9997
2 41925  86.3912 281.0775 0002193  92.0180 268.1267 14.34218151427147
IRIDIUM 111             
1 41926U 17003K   25071.95095248 -.00000141  00000+0 -57420-4 0  9999
2 41926  86.3911 281.0841 0001997  87.8051 272.3374 14.34217242427147
IRIDIUM 113             
1 42803U 17039A   25071.72161258  .00000272  00000+0  90119-4 0  9998
2 42803  86.4032 155.0596 0002493 102.4805 257.6670 14.34217371405040
IRIDIUM 123             
1 42804U 17039B   25071.83285744  .00000051  00000+0  11108-4 0  9994
2 42804  86.4043 186.4287 0002121  90.7161 269.4277 14.34218185403822
IRIDIUM 120             
1 42805U 17039C   25071.92457476  .00000061  00000+0  14701-4 0  9991
2 42805  86.4020 154.8174 0001935  93.6505 266.4912 14.34217347405068
IRIDIUM 115             
1 42806U 17039D   25071.79117778  .00000813  00000+0  23556-3 0  9997
2 42806  86.4556 154.9379 0002491  78.7793 281.3688 14.43282636407715
IRIDIUM 118             
1 42807U 17039E   25071.86457194 -.00000069  00000+0 -31711-4 0  9993
2 42807  86.4044 186.4155 0002102 100.4640 259.6793 14.34217296403826
IRIDIUM 117             
1 42808U 17039F   25071.88359172 -.00001752  00000+0 -63299-3 0  9998
2 42808  86.4041 186.3694 0002132  85.7863 274.3576 14.34212655403856
